{
  "type": "FeatureCollection",
  "features": [
    {
      "type": "Feature",
      "properties": {
        "norad_id": 43260,
        "name": "GAOFEN-1 03",
        "group": "resource",
        "lat": 33.67555726172333,
        "lon": 30.469381509800932,
        "alt_km": 637.1500170899853,
        "timestamp": "2025-12-04T05:42:43.035522+00:00",
        "meta_object_name": "GAOFEN-1 03",
        "meta_object_id": "2018-031B",
        "meta_epoch": "2025-12-03T23:03:07.435008",
        "meta_mean_motion": 14.7640804,
        "meta_eccentricity": 0.0002594,
        "meta_inclination": 98.0811,
        "meta_ra_of_asc_node": 35.624,
        "meta_arg_of_pericenter": 356.8801,
        "meta_mean_anomaly": 3.2391,
        "meta_ephemeris_type": 0,
        "meta_classification_type": "U",
        "meta_norad_cat_id": 43260,
        "meta_element_set_no": 999,
        "meta_rev_at_epoch": 41388,
        "meta_bstar": 0.00026383809,
        "meta_mean_motion_dot": 1.782e-05,
        "meta_mean_motion_ddot": 0,
        "tle_line1": "1 43260U 18031B   25337.96050272  .00001782  00000+0  26384-3 0  9992",
        "tle_line2": "2 43260  98.0811  35.6240 0002594 356.8801   3.2391 14.76408040413881"
      },
      "geometry": {
        "type": "Point",
        "coordinates": [
          30.469381509800932,
          33.67555726172333
        ]
      }
    },
    {
      "type": "Feature",
      "properties": {
        "norad_id": 43262,
        "name": "GAOFEN-1 04",
        "group": "resource",
        "lat": 16.587339281255375,
        "lon": -141.5044432098293,
        "alt_km": 641.4508292324126,
        "timestamp": "2025-12-04T05:42:43.035537+00:00",
        "meta_object_name": "GAOFEN-1 04",
        "meta_object_id": "2018-031D",
        "meta_epoch": "2025-12-04T00:05:45.553344",
        "meta_mean_motion": 14.76421762,
        "meta_eccentricity": 0.00013325,
        "meta_inclination": 98.082,
        "meta_ra_of_asc_node": 35.8356,
        "meta_arg_of_pericenter": 62.0421,
        "meta_mean_anomaly": 298.0923,
        "meta_ephemeris_type": 0,
        "meta_classification_type": "U",
        "meta_norad_cat_id": 43262,
        "meta_element_set_no": 999,
        "meta_rev_at_epoch": 41388,
        "meta_bstar": 0.00027267853,
        "meta_mean_motion_dot": 1.844e-05,
        "meta_mean_motion_ddot": 0,
        "tle_line1": "1 43262U 18031D   25338.00399946  .00001844  00000+0  27268-3 0  9995",
        "tle_line2": "2 43262  98.0820  35.8356 0001332  62.0421 298.0923 14.76421762413887"
      },
      "geometry": {
        "type": "Point",
        "coordinates": [
          -141.5044432098293,
          16.587339281255375
        ]
      }
    },
    {
      "type": "Feature",
      "properties": {
        "norad_id": 43437,
        "name": "SENTINEL-3B",
        "group": "resource",
        "lat": 47.501106505163804,
        "lon": 34.006739546253584,
        "alt_km": 797.9058548690482,
        "timestamp": "2025-12-04T05:42:43.035547+00:00",
        "meta_object_name": "SENTINEL-3B",
        "meta_object_id": "2018-039A",
        "meta_epoch": "2025-12-03T19:23:16.855008",
        "meta_mean_motion": 14.26737137,
        "meta_eccentricity": 0.00014717,
        "meta_inclination": 98.6279,
        "meta_ra_of_asc_node": 43.1207,
        "meta_arg_of_pericenter": 111.4511,
        "meta_mean_anomaly": 248.6827,
        "meta_ephemeris_type": 0,
        "meta_classification_type": "U",
        "meta_norad_cat_id": 43437,
        "meta_element_set_no": 999,
        "meta_rev_at_epoch": 39626,
        "meta_bstar": 0.00011750661,
        "meta_mean_motion_dot": 2.41e-06,
        "meta_mean_motion_ddot": 0,
        "tle_line1": "1 43437U 18039A   25337.80783397  .00000241  00000+0  11751-3 0  9991",
        "tle_line2": "2 43437  98.6279  43.1207 0001471 111.4511 248.6827 14.26737137396262"
      },
      "geometry": {
        "type": "Point",
        "coordinates": [
          34.006739546253584,
          47.501106505163804
        ]
      }
    },
    {
      "type": "Feature",
      "properties": {
        "norad_id": 43461,
        "name": "GAOFEN-5 01",
        "group": "resource",
        "lat": 81.45446931323156,
        "lon": -139.72551903996802,
        "alt_km": 684.2633545375484,
        "timestamp": "2025-12-04T05:42:43.035557+00:00",
        "meta_object_name": "GAOFEN-5 01",
        "meta_object_id": "2018-043A",
        "meta_epoch": "2025-12-03T21:05:09.299040",
        "meta_mean_motion": 14.60394201,
        "meta_eccentricity": 0.000154,
        "meta_inclination": 98.4313,
        "meta_ra_of_asc_node": 300.6919,
        "meta_arg_of_pericenter": 8.9704,
        "meta_mean_anomaly": 351.1523,
        "meta_ephemeris_type": 0,
        "meta_classification_type": "U",
        "meta_norad_cat_id": 43461,
        "meta_element_set_no": 999,
        "meta_rev_at_epoch": 40318,
        "meta_bstar": 0.00020452528,
        "meta_mean_motion_dot": 9.41e-06,
        "meta_mean_motion_ddot": 0,
        "tle_line1": "1 43461U 18043A   25337.87857985  .00000941  00000+0  20453-3 0  9991",
        "tle_line2": "2 43461  98.4313 300.6919 0001540   8.9704 351.1523 14.60394201403180"
      },
      "geometry": {
        "type": "Point",
        "coordinates": [
          -139.72551903996802,
          81.45446931323156
        ]
      }
    },
    {
      "type": "Feature",
      "properties": {
        "norad_id": 43484,
        "name": "GAOFEN-6",
        "group": "resource",
        "lat": -48.69395325206391,
        "lon": 51.76980351900368,
        "alt_km": 654.0831922814577,
        "timestamp": "2025-12-04T05:42:43.035566+00:00",
        "meta_object_name": "GAOFEN-6",
        "meta_object_id": "2018-048A",
        "meta_epoch": "2025-12-03T23:25:46.049088",
        "meta_mean_motion": 14.76538589,
        "meta_eccentricity": 0.00133194,
        "meta_inclination": 97.8043,
        "meta_ra_of_asc_node": 42.5372,
        "meta_arg_of_pericenter": 89.5887,
        "meta_mean_anomaly": 270.685,
        "meta_ephemeris_type": 0,
        "meta_classification_type": "U",
        "meta_norad_cat_id": 43484,
        "meta_element_set_no": 999,
        "meta_rev_at_epoch": 40458,
        "meta_bstar": 0.0001092287,
        "meta_mean_motion_dot": 7.13e-06,
        "meta_mean_motion_ddot": 0,
        "tle_line1": "1 43484U 18048A   25337.97622742  .00000713  00000+0  10923-3 0  9991",
        "tle_line2": "2 43484  97.8043  42.5372 0013319  89.5887 270.6850 14.76538589404586"
      },
      "geometry": {
        "type": "Point",
        "coordinates": [
          51.76980351900368,
          -48.69395325206391
        ]
      }
    },
    {
      "type": "Feature",
      "properties": {
        "norad_id": 43585,
        "name": "GAOFEN-11 01",
        "group": "resource",
        "lat": 61.82131482668208,
        "lon": 27.678876197578223,
        "alt_km": 413.0603989764131,
        "timestamp": "2025-12-04T05:42:43.035576+00:00",
        "meta_object_name": "GAOFEN-11 01",
        "meta_object_id": "2018-063A",
        "meta_epoch": "2025-12-03T23:14:25.021824",
        "meta_mean_motion": 15.48842188,
        "meta_eccentricity": 0.0004916,
        "meta_inclination": 97.1578,
        "meta_ra_of_asc_node": 40.9787,
        "meta_arg_of_pericenter": 351.8072,
        "meta_mean_anomaly": 8.3098,
        "meta_ephemeris_type": 0,
        "meta_classification_type": "U",
        "meta_norad_cat_id": 43585,
        "meta_element_set_no": 999,
        "meta_rev_at_epoch": 41006,
        "meta_bstar": 0.00051198641,
        "meta_mean_motion_dot": 0.00027529,
        "meta_mean_motion_ddot": 0,
        "tle_line1": "1 43585U 18063A   25337.96834516  .00027529  00000+0  51199-3 0  9997",
        "tle_line2": "2 43585  97.1578  40.9787 0004916 351.8072   8.3098 15.48842188410063"
      },
      "geometry": {
        "type": "Point",
        "coordinates": [
          27.678876197578223,
          61.82131482668208
        ]
      }
    },
    {
      "type": "Feature",
      "properties": {
        "norad_id": 43613,
        "name": "ICESAT-2",
        "group": "resource",
        "lat": 76.63537346402845,
        "lon": -130.04002400850234,
        "alt_km": 473.7412574802438,
        "timestamp": "2025-12-04T05:42:43.035588+00:00",
        "meta_object_name": "ICESAT-2",
        "meta_object_id": "2018-070A",
        "meta_epoch": "2025-12-03T23:05:28.160736",
        "meta_mean_motion": 15.28251726,
        "meta_eccentricity": 3.907e-05,
        "meta_inclination": 92.0056,
        "meta_ra_of_asc_node": 238.3676,
        "meta_arg_of_pericenter": 136.0831,
        "meta_mean_anomaly": 224.0449,
        "meta_ephemeris_type": 0,
        "meta_classification_type": "U",
        "meta_norad_cat_id": 43613,
        "meta_element_set_no": 999,
        "meta_rev_at_epoch": 40264,
        "meta_bstar": 0.0009279666,
        "meta_mean_motion_dot": 0.00025579,
        "meta_mean_motion_ddot": 0,
        "tle_line1": "1 43613U 18070A   25337.96213149  .00025579  00000+0  92797-3 0  9992",
        "tle_line2": "2 43613  92.0056 238.3676 0000390 136.0831 224.0449 15.28251726402640"
      },
      "geometry": {
        "type": "Point",
        "coordinates": [
          -130.04002400850234,
          76.63537346402845
        ]
      }
    }
  ]
}